NORAD_CAT_ID,OBJECT_NAME,OBJECT_TYPE,EPOCH,MEAN_MOTION,ECCENTRICITY,INCLINATION,RA_OF_ASC_NODE,ARG_OF_PERICENTER,MEAN_ANOMALY,BSTAR,MEAN_MOTION_DOT,MEAN_MOTION_DDOT,TLE_LINE0,TLE_LINE1,TLE_LINE2,SEMIMAJOR_AXIS,PERIOD,APOGEE,PERIGEE,DECAYED
51752.0,STARLINK-3511,PAYLOAD,2022-03-29 14:00:01,15.73098062,0.0001151,53.2173,321.4584,104.0086,219.4622,0.00068541,0.00096258,0.0,0 STARLINK-3511,1 51752U 22016AQ  22088.58334491  .00096258  00000-0  68541-3 0  9995,2 51752  53.2173 321.4584 0001151 104.0086 219.4622 15.73098062  3670,6728.186,91.539,350.825,349.276,0.0
51752.0,STARLINK-3511,PAYLOAD,2022-03-29 20:00:01,15.73160062,0.000113,53.2173,320.223,96.5126,203.583,0.00022871,0.00031544,0.0,0 STARLINK-3511,1 51752U 22016AQ  22088.83334491  .00031544  00000-0  22871-3 0  9996,2 51752  53.2173 320.2230 0001130  96.5126 203.5830 15.73160062  6973,6728.009,91.536,350.634,349.11400000000015,0.0
51752.0,STARLINK-3511,PAYLOAD,2022-03-29 22:00:00,15.73162218,0.0001137,53.2173,319.8112,92.4617,319.8546,0.0003154,0.00043803,0.0,0 STARLINK-3511,1 51752U 22016AQ  22088.91667824  .00043803  00000-0  31540-3 0  9998,2 51752  53.2173 319.8112 0001137  92.4617 319.8546 15.73162218  3701,6728.003000000002,91.535,350.6330000000001,349.103,0.0
51752.0,STARLINK-3511,PAYLOAD,2022-03-30 14:00:01,15.73171453,0.0001209,53.2168,316.5104,102.4594,127.7762,0.00058687,0.00082454,0.0,0 STARLINK-3511,1 51752U 22016AQ  22089.58335648  .00082454  00000-0  58687-3 0  9994,2 51752  53.2168 316.5104 0001209 102.4594 127.7762 15.73171453  3668,6727.977,91.535,350.655,349.028,0.0
51752.0,STARLINK-3511,PAYLOAD,2022-03-30 22:00:00,15.73229173,0.0001124,53.2165,314.8631,93.1169,225.9833,-0.00037167,-0.0005252,0.0,0 STARLINK-3511,1 51752U 22016AQ  22089.91667824 -.00052520  00000-0 -37167-3 0  9998,2 51752  53.2165 314.8631 0001124  93.1169 225.9833 15.73229173  3721,6727.812,91.531,350.43300000000005,348.921,0.0
51752.0,STARLINK-3511,PAYLOAD,2022-03-31 06:00:00,15.73250282,0.0001002,53.2161,313.213,91.1845,316.8433,-0.00052813,-0.00074245,0.0,0 STARLINK-3511,1 51752U 22016AQ  22090.25001157 -.00074245  00000-0 -52813-3 0  9991,2 51752  53.2161 313.2130 0001002  91.1845 316.8433 15.73250282  7194,6727.752,91.53,350.291,348.9430000000001,0.0
51752.0,STARLINK-3511,PAYLOAD,2022-03-31 14:00:01,15.73196036,0.0001303,53.2165,311.5618,101.1251,35.8644,-0.00020649,-0.00029493,0.0,0 STARLINK-3511,1 51752U 22016AQ  22090.58334491 -.00029493  00000-0 -20649-3 0  9994,2 51752  53.2165 311.5618 0001303 101.1251  35.8644 15.73196036  3696,6727.906,91.533,350.648,348.895,0.0
51752.0,STARLINK-3511,PAYLOAD,2022-03-31 22:00:00,15.73181849,0.0001374,53.2165,309.9143,88.1222,137.8151,0.00055637,0.00078131,0.0,0 STARLINK-3511,1 51752U 22016AQ  22090.91667824  .00078131  00000-0  55637-3 0  9996,2 51752  53.2165 309.9143 0001374  88.1222 137.8151 15.73181849  7304,6727.946999999999,91.534,350.736,348.88800000000015,0.0
51752.0,STARLINK-3511,PAYLOAD,2022-04-01 14:00:01,15.73265357,0.0001176,53.2162,306.6131,99.4646,304.4274,-0.00050477,-0.00071062,0.0,0 STARLINK-3511,1 51752U 22016AQ  22091.58334491 -.00071062  00000-0 -50477-3 0  9996,2 51752  53.2162 306.6131 0001176  99.4646 304.4274 15.73265357  7403,6727.709,91.529,350.365,348.783,0.0
51752.0,STARLINK-3511,PAYLOAD,2022-04-01 22:00:00,15.7319744,0.0001151,53.2158,304.9656,85.8488,47.0266,-0.00058396,-0.00081772,0.0,0 STARLINK-3511,1 51752U 22016AQ  22091.91667824 -.00081772  00000-0 -58396-3 0  9999,2 51752  53.2158 304.9656 0001151  85.8488  47.0266 15.73197440  3759,6727.901999999999,91.533,350.542,348.99300000000005,0.0
51752.0,STARLINK-3511,PAYLOAD,2022-04-02 06:00:00,15.73233874,0.0001199,53.2159,303.3069,95.1834,126.5706,-0.0021251,-0.00289254,0.0,0 STARLINK-3511,1 51752U 22016AQ  22092.25001157 -.00289254  00000-0 -21251-2 0  9992,2 51752  53.2159 303.3069 0001199  95.1834 126.5706 15.73233874  7514,6727.799,91.531,350.47,348.857,0.0
51752.0,STARLINK-3511,PAYLOAD,2022-04-02 14:00:01,15.73148451,0.0001284999999999,53.2158,301.6642,97.7738,212.9614,0.00051616,0.00072285,0.0,0 STARLINK-3511,1 51752U 22016AQ  22092.58335648  .00072285  00000-0  51616-3 0  9994,2 51752  53.2158 301.6642 0001285  97.7738 212.9614 15.73148451  7567,6728.042,91.536,350.772,349.043,0.0
51752.0,STARLINK-3511,PAYLOAD,2022-04-02 22:00:01,15.73203118,0.0001183,53.2159,300.0168,84.3097,315.3486,-0.00040205,-0.00056672,0.0,0 STARLINK-3511,1 51752U 22016AQ  22092.91668981 -.00056672  00000-0 -40205-3 0  9996,2 51752  53.2159 300.0168 0001183  84.3097 315.3486 15.73203118  3711,6727.886,91.533,350.547,348.955,0.0
51752.0,STARLINK-3511,PAYLOAD,2022-04-03 04:00:00,15.73153731,0.0001095999999999,53.2155,298.779,82.5297,293.7422,0.00018926,0.00025971,0.0,0 STARLINK-3511,1 51752U 22016AQ  22093.16667824  .00025971  00000-0  18926-3 0  9990,2 51752  53.2155 298.7790 0001096  82.5297 293.7422 15.73153731  7657,6728.026999999999,91.536,350.629,349.155,0.0
51752.0,STARLINK-3511,PAYLOAD,2022-04-03 22:00:00,15.73108709,0.0001114,53.2155,295.0685,78.8481,227.4022,0.00027791,0.00038409,0.0,0 STARLINK-3511,1 51752U 22016AQ  22093.91667824  .00038409  00000-0  27791-3 0  9993,2 51752  53.2155 295.0685 0001114  78.8481 227.4022 15.73108709  7772,6728.155,91.538,350.77,349.271,0.0
51752.0,STARLINK-3511,PAYLOAD,2022-04-04 14:00:01,15.73205236,0.0001087,53.2156,291.7674,91.2537,32.7264,0.00048336,0.0006778,0.0,0 STARLINK-3511,1 51752U 22016AQ  22094.58334491  .00067780  00000-0  48336-3 0  9990,2 51752  53.2156 291.7674 0001087  91.2537  32.7264 15.73205236  7873,6727.88,91.533,350.477,349.014,0.0
51752.0,STARLINK-3511,PAYLOAD,2022-04-04 22:00:00,15.73248903,0.0001186,53.2158,290.1198,71.8345,141.1408,5.4715e-05,7.081e-05,0.0,0 STARLINK-3511,1 51752U 22016AQ  22094.91667824  .00007081  00000-0  54715-4 0  9993,2 51752  53.2158 290.1198 0001186  71.8345 141.1408 15.73248903  3712,6727.755999999999,91.53,350.4190000000001,348.8230000000001,0.0
51752.0,STARLINK-3511,PAYLOAD,2022-04-05 06:00:00,15.73297688,0.0001079,53.2159,288.4679,79.157,222.8005,-0.00061195,-0.00085986,0.0,0 STARLINK-3511,1 51752U 22016AQ  22095.25001157 -.00085986  00000-0 -61195-3 0  9993,2 51752  53.2159 288.4679 0001079  79.1570 222.8005 15.73297688  7986,6727.6169999999975,91.527,350.208,348.756,0.0
51752.0,STARLINK-3511,PAYLOAD,2022-04-05 14:00:01,15.73277831,0.0001224,53.2156,286.8186,80.837,310.1642,-0.0012882999999999,-0.00178237,0.0,0 STARLINK-3511,1 51752U 22016AQ  22095.58335648 -.00178237  00000-0 -12883-2 0  9995,2 51752  53.2156 286.8186 0001224  80.8370 310.1642 15.73277831  3709,6727.6730000000025,91.529,350.362,348.715,0.0
51752.0,STARLINK-3511,PAYLOAD,2022-04-05 22:00:00,15.73059286,0.0001413,53.2153,285.1711,72.2187,47.6776,0.0012577,0.00178613,0.0,0 STARLINK-3511,1 51752U 22016AQ  22095.91667824  .00178613  00000-0  12577-2 0  9992,2 51752  53.2153 285.1711 0001413  72.2187  47.6776 15.73059286  8081,6728.295999999999,91.541,351.112,349.211,0.0
51752.0,STARLINK-3511,PAYLOAD,2022-04-06 14:00:01,15.73186767,8.47e-05,53.2154,281.8702,74.3629,223.3146,-2.7524e-05,-4.477e-05,0.0,0 STARLINK-3511,1 51752U 22016AQ  22096.58334491 -.00004477  00000-0 -27524-4 0  9995,2 51752  53.2154 281.8702 0000847  74.3629 223.3146 15.73186767  8190,6727.933000000001,91.534,350.36800000000005,349.228,0.0
51752.0,STARLINK-3511,PAYLOAD,2022-04-06 22:00:00,15.73173157,8.809999999999999e-05,53.2156,280.2227,49.4557,337.1523,0.00082536,0.001167,0.0,0 STARLINK-3511,1 51752U 22016AQ  22096.91667824  .00116700  00000-0  82536-3 0  9995,2 51752  53.2156 280.2227 0000881  49.4557 337.1523 15.73173157  8246,6727.972,91.535,350.42900000000014,349.244,0.0
51752.0,STARLINK-3511,PAYLOAD,2022-04-07 04:00:00,15.73275339,8.68e-05,53.2153,278.9843,51.7353,311.5596,-0.00037546,-0.00053148,0.0,0 STARLINK-3511,1 51752U 22016AQ  22097.16667824 -.00053148  00000-0 -37546-3 0  9992,2 51752  53.2153 278.9843 0000868  51.7353 311.5596 15.73275339  8281,6727.68,91.529,350.129,348.961,0.0
51752.0,STARLINK-3511,PAYLOAD,2022-04-07 14:00:01,15.73241128,0.0001093,53.2154,276.9219,65.5337,138.995,-0.00035999,-0.00050925,0.0,0 STARLINK-3511,1 51752U 22016AQ  22097.58334491 -.00050925  00000-0 -35999-3 0  9999,2 51752  53.2154 276.9219 0001093  65.5337 138.9950 15.73241128  3710,6727.778,91.531,350.37800000000016,348.908,0.0
51752.0,STARLINK-3511,PAYLOAD,2022-04-07 20:00:01,15.73219981,0.0001222,53.215,275.6863,54.5074,126.7534,-0.00015584,-0.00022451,0.0,0 STARLINK-3511,1 51752U 22016AQ  22097.83334491 -.00022451  00000-0 -15584-3 0  9998,2 51752  53.2150 275.6863 0001222  54.5074 126.7534 15.73219981  8391,6727.8380000000025,91.532,350.525,348.881,0.0
51752.0,STARLINK-3511,PAYLOAD,2022-04-07 22:00:00,15.73201968,0.0001194,53.2149,275.2742,52.14,241.363,9.6719e-05,0.00012976,0.0,0 STARLINK-3511,1 51752U 22016AQ  22097.91667824  .00012976  00000-0  96719-4 0  9995,2 51752  53.2149 275.2742 0001194  52.1400 241.3630 15.73201968  3680,6727.89,91.533,350.55800000000005,348.951,0.0
51752.0,STARLINK-3511,PAYLOAD,2022-04-08 06:00:00,15.73216234,9.5e-05,53.2146,273.6226,54.5574,327.8994,0.00049229,0.00069087,0.0,0 STARLINK-3511,1 51752U 22016AQ  22098.25001157  .00069087  00000-0  49229-3 0  9992,2 51752  53.2146 273.6226 0000950  54.5574 327.8994 15.73216234  8458,6727.849,91.532,350.353,349.075,0.0
51752.0,STARLINK-3511,PAYLOAD,2022-04-08 14:00:03,15.73285478,0.0001082,53.2149,271.9731,57.8381,53.7134,-0.00076968,-0.00107657,0.0,0 STARLINK-3511,1 51752U 22016AQ  22098.58336806 -.00107657  00000-0 -76968-3 0  9998,2 51752  53.2149 271.9731 0001082  57.8381  53.7134 15.73285478  8505,6727.651,91.528,350.244,348.789,0.0
51752.0,STARLINK-3511,PAYLOAD,2022-04-08 22:00:00,15.73177986,0.0001250999999999,53.2149,270.3254,44.3192,156.0965,0.0001264,0.00017139,0.0,0 STARLINK-3511,1 51752U 22016AQ  22098.91667824  .00017139  00000-0  12640-3 0  9992,2 51752  53.2149 270.3254 0001251  44.3192 156.0965 15.73177986  3684,6727.958000000001,91.534,350.665,348.981,0.0
